,country,cnt,formatted_address,latitude,longitude,accuracy,google_place_id,type,postcode,number_of_results,status
1,Netherlands,231,,,,,,,,,
3,Spain,82,,,,,,,,,
4,Bangladesh,81,,,,,,,,,
7,Czech_Republic,61,,,,,,,,,
9,Maine,31,,,,,,,,,
10,Germany-SH,29,,,,,,,,,
12,Belgium,26,,,,,,,,,
13,Sweden,26,,,,,,,,,
14,Ireland,25,,,,,,,,,
16,Hokkaido,22,,,,,,,,,
18,England,21,,,,,,,,,
19,Poland,21,,,,,,,,,
20,North_Dakota,21,,,,,,,,,
21,New_York,18,,,,,,,,,
22,xxx,20,,,,,,,,,
23,Romania,14,,,,,,,,,
24,Laos,14,,,,,,,,,
25,Florida,14,,,,,,,,,
27,Hubei,12,,,,,,,,,
28,Germany-NI,11,,,,,,,,,
29,Wisconsin,11,,,,,,,,,
30,Maryland,10,,,,,,,,,
31,France,10,,,,,,,,,
33,Israel,9,,,,,,,,,
36,Greece,9,,,,,,,,,
37,Slovenia,8,,,,,,,,,
38,Luxembourg,8,,,,,,,,,
39,Tyumen,7,,,,,,,,,
40,Saratov,7,,,,,,,,,
41,Delaware,7,,,,,,,,,
42,Scotland,7,,,,,,,,,
43,Montana,6,,,,,,,,,
44,Jiangxi,6,,,,,,,,,
45,Bulgaria,6,,,,,,,,,
48,Germany-MV,5,,,,,,,,,
49,Finland,5,,,,,,,,,
51,Guangdong,4,,,,,,,,,
52,Germany-BB,4,,,,,,,,,
53,BC,4,,,,,,,,,
54,Croatia,4,,,,,,,,,
55,Senegal,4,,,,,,,,,
56,Guizhou,4,,,,,,,,,
58,NL,4,,,,,,,,,
59,Georgia,3,,,,,,,,,
60,South_Carolina,3,,,,,,,,,
63,Estonia,3,,,,,,,,,
64,Moldova,2,,,,,,,,,
65,Korea,2,,,,,,,,,
66,Washington,2,,,,,,,,,
67,Ehime,2,,,,,,,,,
68,Lithuania,2,,,,,,,,,
69,Lesotho,2,,,,,,,,,
70,Kagoshima,2,,,,,,,,,
71,Hebei,2,,,,,,,,,
72,Hunan,2,,,,,,,,,
74,Wales,2,,,,,,,,,
75,Tibet,2,,,,,,,,,
76,Anhui,2,,,,,,,,,
77,Germany-BY,1,,,,,,,,,
78,Sakhalin,1,,,,,,,,,
79,Connecticut,1,,,,,,,,,
80,Idaho,1,,,,,,,,,
81,UFTt2203,1,,,,,,,,,
82,1,1,,,,,,,,,
83,Aomori,1,,,,,,,,,
84,Saitama,1,,,,,,,,,
85,Chiba,1,,,,,,,,,
86,Hyogo,1,,,,,,,,,
87,goose_Denmark,1,,,,,,,,,
89,22P019377,1,,,,,,,,,
90,Lisbon,1,,,,,,,,,
91,belgium,1,,,,,,,,,
92,New_Hampshire,1,,,,,,,,,
94,Germany-NW,1,,,,,,,,,
95,Massachusetts,1,,,,,,,,,
96,Hungary,1,,,,,,,,,
97,Nigeria,1,,,,,,,,,
98,Miyagi,1,,,,,,,,,
